{"type":"FeatureCollection","name":"meridia_water","provenance":"Synthetic","features":[{"type":"Feature","id":"W000","properties":{"name":"River Meridia","kind":"water"},"geometry":{"type":"Polygon","coordinates":[[[9.0016406,44.965682],[9.0020313,44.9664446],[9.0023937,44.9672072],[9.0027264,44.9679699],[9.0030279,44.9687325],[9.0032971,44.9694951],[9.0035331,44.9702577],[9.0037351,44.9710204],[9.0039025,44.971783],[9.0040351,44.9725456],[9.0041329,44.9733082],[9.004196,44.9740708],[9.0042248,44.9748335],[9.0042202,44.9755961],[9.0041829,44.9763587],[9.0041142,44.9771213],[9.0040156,44.977884],[9.0038887,44.9786466],[9.0037354,44.9794092],[9.0035578,44.9801718],[9.0033583,44.9809344],[9.0031394,44.9816971],[9.0029037,44.9824597],[9.0026541,44.9832223],[9.0023936,44.9839849],[9.0021252,44.9847476],[9.0018521,44.9855102],[9.0015777,44.9862728],[9.001305,44.9870354],[9.0010375,44.987798],[9.0007785,44.9885607],[9.0005311,44.9893233],[9.0002985,44.9900859],[9.0000839,44.9908485],[8.9998902,44.9916112],[8.9997202,44.9923738],[8.9995765,44.9931364],[8.9994618,44.993899],[8.9993782,44.9946616],[8.9993277,44.9954243],[8.9993122,44.9961869],[8.9993332,44.9969495],[8.9993919,44.9977121],[8.9994893,44.9984748],[8.999626,44.9992374],[8.9998026,45.0],[9.0000189,45.0007626],[9.0002748,45.0015252],[9.0005698,45.0022879],[9.0009029,45.0030505],[9.0012732,45.0038131],[9.001679,45.0045757],[9.0021189,45.0053384],[9.0025908,45.006101],[9.0030926,45.0068636],[9.0036218,45.0076262],[9.0041759,45.0083888],[9.0047521,45.0091515],[9.0053475,45.0099141],[9.005959,45.0106767],[9.0065835,45.0114393],[9.0072176,45.012202],[9.0078581,45.0129646],[9.0085018,45.0137272],[9.0091451,45.0144898],[9.009785,45.0152524],[9.0104181,45.0160151],[9.0110412,45.0167777],[9.0116514,45.0175403],[9.0122456,45.0183029],[9.0128211,45.0190656],[9.0133752,45.0198282],[9.0139056,45.0205908],[9.01441,45.0213534],[9.0148863,45.022116],[9.0153328,45.0228787],[9.015748,45.0236413],[9.0161305,45.0244039],[9.0164792,45.0251665],[9.0167934,45.0259292],[9.0170726,45.0266918],[9.0173164,45.0274544],[9.0175248,45.028217],[9.017698,45.0289796],[9.0178365,45.0297423],[9.017941,45.0305049],[9.0180124,45.0312675],[9.0180518,45.0320301],[9.0180606,45.0327928],[9.0180402,45.0335554],[9.0179923,45.034318],[9.0212213,45.034318],[9.0211792,45.0335554],[9.0211035,45.0327928],[9.0209938,45.0320301],[9.0208501,45.0312675],[9.0206724,45.0305049],[9.0204612,45.0297423],[9.020217,45.0289796],[9.0199407,45.028217],[9.0196332,45.0274544],[9.0192957,45.0266918],[9.0189295,45.0259292],[9.0185362,45.0251665],[9.0181174,45.0244039],[9.0176749,45.0236413],[9.0172106,45.0228787],[9.0167266,45.022116],[9.0162248,45.0213534],[9.0157074,45.0205908],[9.0151766,45.0198282],[9.0146347,45.0190656],[9.014084,45.0183029],[9.0135266,45.0175403],[9.0129649,45.0167777],[9.0124012,45.0160151],[9.0118376,45.0152524],[9.0112763,45.0144898],[9.0107195,45.0137272],[9.0101693,45.0129646],[9.0096276,45.012202],[9.0090963,45.0114393],[9.0085774,45.0106767],[9.0080727,45.0099141],[9.0075836,45.0091515],[9.0071119,45.0083888],[9.006659,45.0076262],[9.0062262,45.0068636],[9.0058147,45.006101],[9.0054258,45.0053384],[9.0050603,45.0045757],[9.0047193,45.0038131],[9.0044034,45.0030505],[9.0041133,45.0022879],[9.0038496,45.0015252],[9.0036126,45.0007626],[9.0034026,45.0],[9.0032197,44.9992374],[9.003064,44.9984748],[9.0029354,44.9977121],[9.0028336,44.9969495],[9.0027583,44.9961869],[9.002709,44.9954243],[9.002685,44.9946616],[9.0026857,44.993899],[9.0027101,44.9931364],[9.0027573,44.9923738],[9.0028261,44.9916112],[9.0029154,44.9908485],[9.0030237,44.9900859],[9.0031495,44.9893233],[9.0032914,44.9885607],[9.0034475,44.987798],[9.0036162,44.9870354],[9.0037954,44.9862728],[9.0039833,44.9855102],[9.0041778,44.9847476],[9.0043767,44.9839849],[9.0045778,44.9832223],[9.004779,44.9824597],[9.0049778,44.9816971],[9.005172,44.9809344],[9.0053592,44.9801718],[9.0055372,44.9794092],[9.0057035,44.9786466],[9.0058559,44.977884],[9.0059921,44.9771213],[9.0061098,44.9763587],[9.0062071,44.9755961],[9.0062818,44.9748335],[9.006332,44.9740708],[9.006356,44.9733082],[9.0063519,44.9725456],[9.0063184,44.971783],[9.0062541,44.9710204],[9.0061578,44.9702577],[9.0060285,44.9694951],[9.0058656,44.9687325],[9.0056684,44.9679699],[9.0054367,44.9672072],[9.0051704,44.9664446],[9.0048696,44.965682],[9.0016406,44.965682]]]}}]}