{
  "type": "Feature",
  "id": "cbd_polygon",
  "properties": {
    "name": "Central district cordon",
    "zone_ids": [
      "Z030",
      "Z031",
      "Z032",
      "Z039",
      "Z040",
      "Z041",
      "Z048",
      "Z049",
      "Z050"
    ],
    "description": "Congestion-charge / pedestrianisation boundary for the demo policy. Vehicles crossing into this polygon are priced."
  },
  "geometry": {
    "type": "Polygon",
    "coordinates": [
      [
        [
          8.985708,
          44.989894
        ],
        [
          9.014292,
          44.989894
        ],
        [
          9.014292,
          45.010106
        ],
        [
          8.985708,
          45.010106
        ],
        [
          8.985708,
          44.989894
        ]
      ]
    ]
  }
}
